STARLINK-36110          
1 66945U 25286W   25350.25003472 -.01336469  00000+0 -50035-2 0  9999
2 66945  53.1559  32.7727 0000852  87.9735  47.0270 15.89753368  2559
STARLINK-36115          
1 66946U 25286X   25350.25003472 -.01339670  00000+0 -50059-2 0  9993
2 66946  53.1559  32.7686 0000820  90.8019  46.1940 15.89797423  2551
STARLINK-36089          
1 66947U 25286Y   25350.25003472 -.01355892  00000+0 -50506-2 0  9995
2 66947  53.1559  32.7597 0000908  84.8573  56.3897 15.89890150  2553
STARLINK-36116          
1 66948U 25286Z   25350.25003472 -.01351752  00000+0 -50446-2 0  9990
2 66948  53.1560  32.7636 0000810  92.3145  47.0830 15.89846574  2556
STARLINK-36096          
1 66949U 25286AA  25350.25003472 -.01360306  00000+0 -50578-2 0  9992
2 66949  53.1561  32.7558 0000872  82.7261  60.4136 15.89934800  2559
STARLINK-36111          
1 66950U 25286AB  25350.25003472 -.01365678  00000+0 -50579-2 0  9992
2 66950  53.1560  32.7475 0000870  91.2768  55.8222 15.90021950  2552
STARLINK-35999          
1 66951U 25286AC  25350.25003472 -.01375553  00000+0 -50864-2 0  9993
2 66951  53.1561  32.7432 0000910  89.2530  59.9458 15.90072189  2552
STARLINK-36122          
1 66952U 25286AD  25350.25003472 -.01361130  00000+0 -50502-2 0  9999
2 66952  53.1561  32.7518 0000922  83.7216  61.4364 15.89976891  2556
HULIANWANG DIGUI-114    
1 66953U 25287A   25349.84444372  .00000039  00000+0  25636-4 0  9999
2 66953  86.4960 345.0232 0008799 195.8466 164.2419 13.68689195   952
HULIANWANG DIGUI-115    
1 66954U 25287B   25349.25912892  .00000039  00000+0  26102-4 0  9991
2 66954  86.4971 345.2403 0008784 196.1208 163.9673 13.68791890   874
HULIANWANG DIGUI-116    
1 66955U 25287C   25348.08909877  .00000039  00000+0  25655-4 0  9993
2 66955  86.4907 345.6576 0008081 193.9217 166.1720 13.68903211   717
HULIANWANG DIGUI-117    
1 66956U 25287D   25349.62352946  .00000037  00000+0  23367-4 0  9990
2 66956  86.4969 345.1063 0007660 183.6249 176.4856 13.69018331   923
