CCSDS_OMM_VERS = 2.0
CREATION_DATE  = 
ORIGINATOR     = 

OBJECT_NAME    = STARLINK-36110
OBJECT_ID      = 2025-286W
CENTER_NAME    = EARTH
REF_FRAME      = TEME
TIME_SYSTEM    = UTC
MEAN_ELEMENT_THEORY = SGP/SGP4

EPOCH          = 2025-12-16T06:00:02.999808
MEAN_MOTION    = 15.89753368
ECCENTRICITY   = .00008526
INCLINATION    = 53.1559
RA_OF_ASC_NODE = 32.7727
ARG_OF_PERICENTER = 87.9735
MEAN_ANOMALY   = 47.0270

EPHEMERIS_TYPE = 0
CLASSIFICATION_TYPE = U
NORAD_CAT_ID   = 66945
ELEMENT_SET_NO = 999
REV_AT_EPOCH   = 255
BSTAR          = -.50034704E-2
MEAN_MOTION_DOT = -.1336469E-1
MEAN_MOTION_DDOT = 0

CCSDS_OMM_VERS = 2.0
CREATION_DATE  = 
ORIGINATOR     = 

OBJECT_NAME    = STARLINK-36115
OBJECT_ID      = 2025-286X
CENTER_NAME    = EARTH
REF_FRAME      = TEME
TIME_SYSTEM    = UTC
MEAN_ELEMENT_THEORY = SGP/SGP4

EPOCH          = 2025-12-16T06:00:02.999808
MEAN_MOTION    = 15.89797423
ECCENTRICITY   = .00008206
INCLINATION    = 53.1559
RA_OF_ASC_NODE = 32.7686
ARG_OF_PERICENTER = 90.8019
MEAN_ANOMALY   = 46.1940

EPHEMERIS_TYPE = 0
CLASSIFICATION_TYPE = U
NORAD_CAT_ID   = 66946
ELEMENT_SET_NO = 999
REV_AT_EPOCH   = 255
BSTAR          = -.50058675E-2
MEAN_MOTION_DOT = -.133967E-1
MEAN_MOTION_DDOT = 0

CCSDS_OMM_VERS = 2.0
CREATION_DATE  = 
ORIGINATOR     = 

OBJECT_NAME    = STARLINK-36089
OBJECT_ID      = 2025-286Y
CENTER_NAME    = EARTH
REF_FRAME      = TEME
TIME_SYSTEM    = UTC
MEAN_ELEMENT_THEORY = SGP/SGP4

EPOCH          = 2025-12-16T06:00:02.999808
MEAN_MOTION    = 15.89890150
ECCENTRICITY   = .00009087
INCLINATION    = 53.1559
RA_OF_ASC_NODE = 32.7597
ARG_OF_PERICENTER = 84.8573
MEAN_ANOMALY   = 56.3897

EPHEMERIS_TYPE = 0
CLASSIFICATION_TYPE = U
NORAD_CAT_ID   = 66947
ELEMENT_SET_NO = 999
REV_AT_EPOCH   = 255
BSTAR          = -.50505852E-2
MEAN_MOTION_DOT = -.1355892E-1
MEAN_MOTION_DDOT = 0

CCSDS_OMM_VERS = 2.0
CREATION_DATE  = 
ORIGINATOR     = 

OBJECT_NAME    = STARLINK-36116
OBJECT_ID      = 2025-286Z
CENTER_NAME    = EARTH
REF_FRAME      = TEME
TIME_SYSTEM    = UTC
MEAN_ELEMENT_THEORY = SGP/SGP4

EPOCH          = 2025-12-16T06:00:02.999808
MEAN_MOTION    = 15.89846574
ECCENTRICITY   = .00008108
INCLINATION    = 53.1560
RA_OF_ASC_NODE = 32.7636
ARG_OF_PERICENTER = 92.3145
MEAN_ANOMALY   = 47.0830

EPHEMERIS_TYPE = 0
CLASSIFICATION_TYPE = U
NORAD_CAT_ID   = 66948
ELEMENT_SET_NO = 999
REV_AT_EPOCH   = 255
BSTAR          = -.50445903E-2
MEAN_MOTION_DOT = -.1351752E-1
MEAN_MOTION_DDOT = 0

CCSDS_OMM_VERS = 2.0
CREATION_DATE  = 
ORIGINATOR     = 

OBJECT_NAME    = STARLINK-36096
OBJECT_ID      = 2025-286AA
CENTER_NAME    = EARTH
REF_FRAME      = TEME
TIME_SYSTEM    = UTC
MEAN_ELEMENT_THEORY = SGP/SGP4

EPOCH          = 2025-12-16T06:00:02.999808
MEAN_MOTION    = 15.89934800
ECCENTRICITY   = .00008724
INCLINATION    = 53.1561
RA_OF_ASC_NODE = 32.7558
ARG_OF_PERICENTER = 82.7261
MEAN_ANOMALY   = 60.4136

EPHEMERIS_TYPE = 0
CLASSIFICATION_TYPE = U
NORAD_CAT_ID   = 66949
ELEMENT_SET_NO = 999
REV_AT_EPOCH   = 255
BSTAR          = -.50578257E-2
MEAN_MOTION_DOT = -.1360306E-1
MEAN_MOTION_DDOT = 0

CCSDS_OMM_VERS = 2.0
CREATION_DATE  = 
ORIGINATOR     = 

OBJECT_NAME    = STARLINK-36111
OBJECT_ID      = 2025-286AB
CENTER_NAME    = EARTH
REF_FRAME      = TEME
TIME_SYSTEM    = UTC
MEAN_ELEMENT_THEORY = SGP/SGP4

EPOCH          = 2025-12-16T06:00:02.999808
MEAN_MOTION    = 15.90021950
ECCENTRICITY   = .00008706
INCLINATION    = 53.1560
RA_OF_ASC_NODE = 32.7475
ARG_OF_PERICENTER = 91.2768
MEAN_ANOMALY   = 55.8222

EPHEMERIS_TYPE = 0
CLASSIFICATION_TYPE = U
NORAD_CAT_ID   = 66950
ELEMENT_SET_NO = 999
REV_AT_EPOCH   = 255
BSTAR          = -.50578886E-2
MEAN_MOTION_DOT = -.1365678E-1
MEAN_MOTION_DDOT = 0

CCSDS_OMM_VERS = 2.0
CREATION_DATE  = 
ORIGINATOR     = 

OBJECT_NAME    = STARLINK-35999
OBJECT_ID      = 2025-286AC
CENTER_NAME    = EARTH
REF_FRAME      = TEME
TIME_SYSTEM    = UTC
MEAN_ELEMENT_THEORY = SGP/SGP4

EPOCH          = 2025-12-16T06:00:02.999808
MEAN_MOTION    = 15.90072189
ECCENTRICITY   = .00009103
INCLINATION    = 53.1561
RA_OF_ASC_NODE = 32.7432
ARG_OF_PERICENTER = 89.2530
MEAN_ANOMALY   = 59.9458

EPHEMERIS_TYPE = 0
CLASSIFICATION_TYPE = U
NORAD_CAT_ID   = 66951
ELEMENT_SET_NO = 999
REV_AT_EPOCH   = 255
BSTAR          = -.50863798E-2
MEAN_MOTION_DOT = -.1375553E-1
MEAN_MOTION_DDOT = 0

CCSDS_OMM_VERS = 2.0
CREATION_DATE  = 
ORIGINATOR     = 

OBJECT_NAME    = STARLINK-36122
OBJECT_ID      = 2025-286AD
CENTER_NAME    = EARTH
REF_FRAME      = TEME
TIME_SYSTEM    = UTC
MEAN_ELEMENT_THEORY = SGP/SGP4

EPOCH          = 2025-12-16T06:00:02.999808
MEAN_MOTION    = 15.89976891
ECCENTRICITY   = .00009228
INCLINATION    = 53.1561
RA_OF_ASC_NODE = 32.7518
ARG_OF_PERICENTER = 83.7216
MEAN_ANOMALY   = 61.4364

EPHEMERIS_TYPE = 0
CLASSIFICATION_TYPE = U
NORAD_CAT_ID   = 66952
ELEMENT_SET_NO = 999
REV_AT_EPOCH   = 255
BSTAR          = -.5050219E-2
MEAN_MOTION_DOT = -.136113E-1
MEAN_MOTION_DDOT = 0

CCSDS_OMM_VERS = 2.0
CREATION_DATE  = 
ORIGINATOR     = 

OBJECT_NAME    = HULIANWANG DIGUI-114
OBJECT_ID      = 2025-287A
CENTER_NAME    = EARTH
REF_FRAME      = TEME
TIME_SYSTEM    = UTC
MEAN_ELEMENT_THEORY = SGP/SGP4

EPOCH          = 2025-12-15T20:15:59.937408
MEAN_MOTION    = 13.68689195
ECCENTRICITY   = .00087999
INCLINATION    = 86.4960
RA_OF_ASC_NODE = 345.0232
ARG_OF_PERICENTER = 195.8466
MEAN_ANOMALY   = 164.2419

EPHEMERIS_TYPE = 0
CLASSIFICATION_TYPE = U
NORAD_CAT_ID   = 66953
ELEMENT_SET_NO = 999
REV_AT_EPOCH   = 95
BSTAR          = .25636052E-4
MEAN_MOTION_DOT = .39E-6
MEAN_MOTION_DDOT = 0

CCSDS_OMM_VERS = 2.0
CREATION_DATE  = 
ORIGINATOR     = 

OBJECT_NAME    = HULIANWANG DIGUI-115
OBJECT_ID      = 2025-287B
CENTER_NAME    = EARTH
REF_FRAME      = TEME
TIME_SYSTEM    = UTC
MEAN_ELEMENT_THEORY = SGP/SGP4

EPOCH          = 2025-12-15T06:13:08.738688
MEAN_MOTION    = 13.68791890
ECCENTRICITY   = .0008784
INCLINATION    = 86.4971
RA_OF_ASC_NODE = 345.2403
ARG_OF_PERICENTER = 196.1208
MEAN_ANOMALY   = 163.9673

EPHEMERIS_TYPE = 0
CLASSIFICATION_TYPE = U
NORAD_CAT_ID   = 66954
ELEMENT_SET_NO = 999
REV_AT_EPOCH   = 87
BSTAR          = .26102444E-4
MEAN_MOTION_DOT = .39E-6
MEAN_MOTION_DDOT = 0

CCSDS_OMM_VERS = 2.0
CREATION_DATE  = 
ORIGINATOR     = 

OBJECT_NAME    = HULIANWANG DIGUI-116
OBJECT_ID      = 2025-287C
CENTER_NAME    = EARTH
REF_FRAME      = TEME
TIME_SYSTEM    = UTC
MEAN_ELEMENT_THEORY = SGP/SGP4

EPOCH          = 2025-12-14T02:08:18.133728
MEAN_MOTION    = 13.68903211
ECCENTRICITY   = .00080818
INCLINATION    = 86.4907
RA_OF_ASC_NODE = 345.6576
ARG_OF_PERICENTER = 193.9217
MEAN_ANOMALY   = 166.1720

EPHEMERIS_TYPE = 0
CLASSIFICATION_TYPE = U
NORAD_CAT_ID   = 66955
ELEMENT_SET_NO = 999
REV_AT_EPOCH   = 71
BSTAR          = .25654516E-4
MEAN_MOTION_DOT = .39E-6
MEAN_MOTION_DDOT = 0

CCSDS_OMM_VERS = 2.0
CREATION_DATE  = 
ORIGINATOR     = 

OBJECT_NAME    = HULIANWANG DIGUI-117
OBJECT_ID      = 2025-287D
CENTER_NAME    = EARTH
REF_FRAME      = TEME
TIME_SYSTEM    = UTC
MEAN_ELEMENT_THEORY = SGP/SGP4

EPOCH          = 2025-12-15T14:57:52.945344
MEAN_MOTION    = 13.69018331
ECCENTRICITY   = .00076604
INCLINATION    = 86.4969
RA_OF_ASC_NODE = 345.1063
ARG_OF_PERICENTER = 183.6249
MEAN_ANOMALY   = 176.4856

EPHEMERIS_TYPE = 0
CLASSIFICATION_TYPE = U
NORAD_CAT_ID   = 66956
ELEMENT_SET_NO = 999
REV_AT_EPOCH   = 92
BSTAR          = .23367147E-4
MEAN_MOTION_DOT = .37E-6
MEAN_MOTION_DDOT = 0

